<?xml version="1.0" encoding="UTF-8"?><kml xmlns="http://www.opengis.net/kml/2.2"><Document><name>EUROCLIMA — pontos exploratórios</name>
<Style id="exploratorio"><IconStyle><scale>1.25</scale><Icon><href>http://maps.google.com/mapfiles/kml/pushpin/red-pushpin.png</href></Icon></IconStyle></Style>
<Style id="usina"><IconStyle><scale>1.1</scale><Icon><href>http://maps.google.com/mapfiles/kml/pushpin/ylw-pushpin.png</href></Icon></IconStyle></Style>
<Style id="eixo_mc2"><LineStyle><color>ff00a5ff</color><width>5</width></LineStyle></Style>
<Folder><name>Pontos exploratórios derivados do perfil</name><Placemark><name>CA2-PROPOSTO — Castro Alves 2</name><styleUrl>#exploratorio</styleUrl><description><![CDATA[<b>Triagem de perfil</b><br/>codigo: CA2-PROPOSTO<br/>nome: Castro Alves 2<br/>classe: queda concentrada / energia e cheias<br/>dist_perfil_km: 255.0<br/>lat: -29.0457167<br/>lon: -51.3622784<br/>x_utm: 464729.5<br/>y_utm: 6786895.2<br/>cota_perfil_suavizada_m: 172.7<br/>queda_10km_m: 32.8<br/>declividade_media_m_por_km: 3.28<br/>usina_proxima: Castro Alves<br/>dist_usina_m: 4970.0<br/>criterio: remanescente de queda a jusante de Castro Alves; validar conflito hidráulico<br/>fonte_geometria: perfil longitudinal (ponto de triagem)<br/>status: ponto exploratório — não é eixo selecionado]]></description><Point><coordinates>-51.3622784,-29.0457167,0</coordinates></Point></Placemark><Placemark><name>MC2-PROPOSTO — Monte Claro 2</name><styleUrl>#exploratorio</styleUrl><description><![CDATA[<b>Triagem de perfil</b><br/>codigo: MC2-PROPOSTO<br/>nome: Monte Claro 2<br/>classe: exploratório / energia e cheias<br/>dist_perfil_km: 294.48<br/>lat: -29.0455307<br/>lon: -51.5562985<br/>x_utm: 445839.9<br/>y_utm: 6786842.3<br/>cota_perfil_suavizada_m: 107.1<br/>queda_10km_m: 6.3<br/>declividade_media_m_por_km: 0.63<br/>usina_proxima: Monte Claro<br/>dist_usina_m: 3780.3<br/>criterio: geometria fornecida pelo usuário; validar CAV, remanso, energia e interferência com a cascata<br/>fonte_geometria: EIXO-MONTECLARO2.kmz (ponto médio da linha)<br/>status: ponto exploratório — não é eixo selecionado]]></description><Point><coordinates>-51.5562985,-29.0455307,0</coordinates></Point></Placemark><Placemark><name>14J2-PROPOSTO — 14 de Julho 2</name><styleUrl>#exploratorio</styleUrl><description><![CDATA[<b>Triagem de perfil</b><br/>codigo: 14J2-PROPOSTO<br/>nome: 14 de Julho 2<br/>classe: queda concentrada / controle de cheias<br/>dist_perfil_km: 330.25<br/>lat: -29.0658852<br/>lon: -51.6384943<br/>x_utm: 437849.5<br/>y_utm: 6784546.6<br/>cota_perfil_suavizada_m: 73.8<br/>queda_10km_m: 33.0<br/>declividade_media_m_por_km: 3.3<br/>usina_proxima: 14 de Julho<br/>dist_usina_m: 3550.1<br/>criterio: máximo local de queda no trecho a jusante de 14 de Julho; verificar remanso e sedimentos<br/>fonte_geometria: perfil longitudinal (ponto de triagem)<br/>status: ponto exploratório — não é eixo selecionado]]></description><Point><coordinates>-51.6384943,-29.0658852,0</coordinates></Point></Placemark><Placemark><name>EST1-PROPOSTO — Estrela Norte</name><styleUrl>#exploratorio</styleUrl><description><![CDATA[<b>Triagem de perfil</b><br/>codigo: EST1-PROPOSTO<br/>nome: Estrela Norte<br/>classe: controle de cheias / baixa energia<br/>dist_perfil_km: 360.0<br/>lat: -29.1656775<br/>lon: -51.7456402<br/>x_utm: 427489.7<br/>y_utm: 6773428.6<br/>cota_perfil_suavizada_m: 55.3<br/>queda_10km_m: 8.9<br/>declividade_media_m_por_km: 0.89<br/>usina_proxima: 14 de Julho<br/>dist_usina_m: 13128.8<br/>criterio: ponto próximo ao trecho de interesse; queda pequena, potencialmente útil apenas para controle<br/>fonte_geometria: perfil longitudinal (ponto de triagem)<br/>status: ponto exploratório — não é eixo selecionado]]></description><Point><coordinates>-51.7456402,-29.1656775,0</coordinates></Point></Placemark></Folder><Folder><name>Usinas existentes de referência</name><Placemark><name>Castro Alves</name><styleUrl>#usina</styleUrl><description><![CDATA[Potência: 130.0 MW]]></description><Point><coordinates>-51.3844177,-29.0052987,0</coordinates></Point></Placemark><Placemark><name>Monte Claro</name><styleUrl>#usina</styleUrl><description><![CDATA[Potência: 130.0 MW]]></description><Point><coordinates>-51.5212579,-29.0308372,0</coordinates></Point></Placemark><Placemark><name>14 de Julho</name><styleUrl>#usina</styleUrl><description><![CDATA[Potência: 100.0 MW]]></description><Point><coordinates>-51.6749417,-29.0647528,0</coordinates></Point></Placemark></Folder><Folder><name>Geometria recebida do usuário</name><Placemark><name>EIXO-MONTECLARO2 — geometria original</name><styleUrl>#eixo_mc2</styleUrl><description><![CDATA[Geometria original do arquivo EIXO-MONTECLARO2.kmz. A linha deve ser confirmada no QGIS/Google Earth antes de entrar no pipeline oficial.]]></description><LineString><tessellate>1</tessellate><coordinates>-51.5601085,-29.0439387,0 -51.5524884,-29.0471226,0</coordinates></LineString></Placemark></Folder></Document></kml>